RADUGA 1 [-]            
1 08513U 75123A   15223.84608617 -.00000215  00000-0  00000+0 0  9996
2 08513  11.5489 319.9315 0010155 169.2252 220.8811  1.00265839155217
RADUGA 2 [-]            
1 09416U 76092A   15226.02227558 -.00000051  00000-0  00000+0 0  9997
2 09416  12.1294 321.8488 0027271 269.7271 167.1371  1.00250568 89626
RADUGA 3 [-]            
1 10159U 77071A   15222.79425137 -.00000289  00000-0  00000+0 0  9997
2 10159  12.6428 324.1803 0013034 179.3599 196.8565  1.00202452137317
RADUGA 4 [-]            
1 10987U 78073A   15226.73489959  .00000118  00000-0  00000+0 0  9999
2 10987  13.1150 326.9844 0011441 256.7060  41.2593  1.00278781 79881
RADUGA 5 [-]            
1 11343U 79035A   15224.84080145 -.00000055  00000-0  00000+0 0  9990
2 11343  13.4492 329.2188 0006911 157.8152 204.2362  1.00290367 89606
RADUGA 6 [-]            
1 11708U 80016A   15226.02348917  .00000090  00000-0  00000+0 0  9990
2 11708  13.6560 331.6152 0006644 189.9763 215.3352  1.00308054 82444
RADUGA 7 [-]            
1 12003U 80081A   15226.46267140 -.00000313  00000-0  00000+0 0  9996
2 12003  13.7328 333.1949 0014507 205.1803 255.4445  1.00199583 83714
RADUGA 8 [-]            
1 12351U 81027A   15226.29138957 -.00000040  00000-0  00000+0 0  9994
2 12351  14.0156 334.0665 0089880 157.3785 106.2720  1.00346589 82786
RADUGA 9 [-]            
1 12618U 81069A   15225.73418714 -.00000075  00000-0  00000+0 0  9994
2 12618  14.0854 336.1266 0004042 170.4343 147.7709  1.00355505 88613
RADUGA 10 [-]           
1 12897U 81102A   15226.76577916 -.00000025  00000-0  00000+0 0  9990
2 12897  14.1137 336.8225 0007977 155.6383 170.7500  1.00270628 77691
RADUGA 11 [-]           
1 13669U 82113A   15223.84611668 -.00000070  00000-0  00000+0 0  9990
2 13669  15.3458 347.3836 0044550 185.4122 177.9466  0.97707220 82811
RADUGA 12 [-]           
1 13974U 83028A   15223.84595657 -.00000167  00000-0  00000+0 0  9991
2 13974  14.6034 345.0534 0003668 180.1754 179.1633  1.00252378129647
RADUGA 13 [-]           
1 14307U 83088A   15223.54256684 -.00000161  00000-0  00000+0 0  9993
2 14307  15.4324 349.1676 0012352 323.6148  38.7763  0.98174780 80031
RADUGA 14 [-]           
1 14725U 84016A   15226.01889627 -.00000041  00000-0  00000+0 0  9990
2 14725  14.5364 348.0044 0004877 149.0061 257.5548  1.00288492 78379
RADUGA 15 [-]           
1 15057U 84063A   15224.05626559  .00000063  00000-0  00000+0 0  9999
2 15057  14.5740 349.0140 0005623 143.8463 224.8775  1.00261730101352
RADUGA 16 [-]           
1 15946U 85070A   15225.52514628  .00000065  00000-0  00000+0 0  9993
2 15946  14.6539 353.1216 0005530 180.5351 194.4932  1.00357085 82508
RADUGA 17 [-]           
1 16250U 85107A   15225.13189287 -.00000167  00000-0  00000+0 0  9993
2 16250  14.6633 354.2656 0014470 135.8503 143.0722  1.00128792112127
RADUGA 18 [-]           
1 16497U 86007A   15224.12373759 -.00000000  00000-0  00000+0 0  9999
2 16497  15.2817 356.4468 0074249  99.8853 318.7597  0.98810983106763
RADUGA 19 [-]           
1 17046U 86082A   15225.05252728 -.00000144  00000-0  00000+0 0  9997
2 17046  15.3604 359.8347 0012208 108.6767 252.7789  0.98460981103959
RADUGA 20 [-]           
1 17611U 87028A   15225.83291971 -.00000113  00000-0  00000+0 0  9991
2 17611  17.0695   3.3425 0027312  81.1844 278.2806  0.95962014100295
RADUGA 21 [-]           
1 18631U 87100A   15224.49647281 -.00000205  00000-0  00000+0 0  9997
2 18631  15.2535   2.0128 0004644 153.3509 253.1590  1.00187431101359
RADUGA 22 [-]           
1 19596U 88095A   15226.72472508 -.00000386  00000-0  00000+0 0  9998
2 19596  14.8512   5.4778 0006713 121.0605 218.5249  1.00334486 81993
RADUGA 23 [-]           
1 19928U 89030A   15224.84167810 -.00000348  00000-0  00000+0 0  9993
2 19928  14.8185   7.1531 0022142 106.4180 250.6910  1.00346132 95126
RADUGA-1 1 [-]          
1 20083U 89048A   15226.72175633 -.00000231  00000-0  00000+0 0  9998
2 20083  15.3041   9.5984 0017738  59.5725 281.2073  0.98709196 92174
RADUGA 24 [-]           
1 20367U 89098A   15226.70102220 -.00000228  00000-0  00000+0 0  9994
2 20367  15.1365   9.8142 0005455 168.2270 124.7898  1.00212592 93339
RADUGA 25 [-]           
1 20499U 90016A   15225.54532683 -.00000050  00000-0  00000+0 0  9996
2 20499  14.8525  10.1902 0004883 150.3461 242.0419  1.00166994 93232
RADUGA 26 [-]           
1 21016U 90112A   15224.97950203  .00000035  00000-0  00000+0 0  9999
2 21016  14.8296  13.3062 0002277  77.8065 278.8557  1.00247130 90524
RADUGA-1 2 [-]          
1 21038U 90116A   15225.97606093 -.00000060  00000-0  00000+0 0  9992
2 21038  14.8577  13.4197 0004130  72.6822 296.6294  1.00216520 90204
RADUGA 27 [-]           
1 21132U 91014A   15224.84232605 -.00000383  00000-0  00000+0 0  9992
2 21132  15.3712  13.8131 0003381 136.0580 240.2891  1.00242987 89584
RADUGA 28 [-]           
1 21821U 91087A   15226.03469308  .00000081  00000-0  00000+0 0  9996
2 21821  14.7831  16.7688 0006486 102.6353 264.2184  1.00202974 86646
RADUGA 29 [-]           
1 22557U 93013A   15225.04812869  .00000039  00000-0  00000+0 0  9991
2 22557  14.5399  20.9261 0004241 103.2710 227.3886  1.00249086 81969
RADUGA 30 [-]           
1 22836U 93062A   15222.88892933 -.00000160  00000-0  00000+0 0  9990
2 22836  14.3810  22.7086 0005663 182.9290 151.3099  1.00285292 80023
RADUGA-1 3 [-]          
1 22981U 94008A   15222.92684758 -.00000295  00000-0  00000+0 0  9990
2 22981  14.3324  23.9388 0004389 135.9772 225.3714  1.00315094 78778
RADUGA 31 [-]           
1 23010U 94012A   15226.66954772  .00000093  00000-0  00000+0 0  9995
2 23010  14.3054  23.8540 0002959 111.5832 113.2409  1.00289245 78638
RADUGA 32 [-]           
1 23448U 94087A   15222.98006324 -.00000148  00000-0  00000+0 0  9996
2 23448  14.0053  26.4137 0010447 160.1009 202.2007  1.00284159 93209
RADUGA-1 4 [-]          
1 25642U 99010A   15225.07303734  .00000083  00000-0  00000+0 0  9990
2 25642  13.3156  39.0262 0006724 155.0047 199.8326  1.00327582 60252
RADUGA-1 5 [-]          
1 26477U 00049A   15225.64908470  .00000076  00000-0  00000+0 0  9994
2 26477  10.9476  40.3978 0002984 123.0368  83.2118  1.00229616 54775
RADUGA-1 6 [-]          
1 26936U 01045A   15226.31830449 -.00000196  00000-0  00000+0 0  9990
2 26936  10.4893  45.4198 0019596 109.4028  95.4087  0.97746039 49863
RADUGA-1 7 [-]          
1 28194U 04010A   15224.88075022  .00000108  00000-0  00000+0 0  9993
2 28194   8.6558  52.9773 0005170 125.1908 124.4167  1.00316361 41685
RADUGA-1M 1 [-]         
1 32373U 07058A   15225.48971348 -.00000339  00000-0  00000+0 0  9992
2 32373   1.7294  75.9814 0001982  83.3200 123.0416  0.99401410 28941
RADUGA-1 8 [+]          
1 34264U 09010A   15226.53234097 -.00000081  00000-0  10000-3 0  9992
2 34264   4.4168  75.4857 0007860 301.6875 313.7978  0.99831874 23632
RADUGA-1M 2 [+]         
1 36358U 10002A   15224.84127407 -.00000211  00000-0  00000+0 0  9999
2 36358   0.0411 261.3001 0001999 254.8906 192.6271  1.00273174 20283
RADUGA-1M 3 [+]         
1 39375U 13062A   15226.70722375 -.00000062  00000-0  00000+0 0  9996
2 39375   0.0165 163.2513 0002830   9.1240 114.9992  1.00271727  6425
